NORAD_CAT_ID,OBJECT_NAME,OBJECT_TYPE,EPOCH,MEAN_MOTION,ECCENTRICITY,INCLINATION,RA_OF_ASC_NODE,ARG_OF_PERICENTER,MEAN_ANOMALY,BSTAR,MEAN_MOTION_DOT,MEAN_MOTION_DDOT,TLE_LINE0,TLE_LINE1,TLE_LINE2,SEMIMAJOR_AXIS,PERIOD,APOGEE,PERIGEE,DECAYED
53750.0,STARLINK-4612,PAYLOAD,2022-10-27 14:00:01,15.08858731,0.0001506999999999,53.2178,22.0332,60.0232,48.1046,-0.0012565,-0.0002024,0.0,0 STARLINK-4612,1 53750U 22107BC  22300.58335648 -.00020240  00000-0 -12565-2 0  9992,2 53750  53.2178  22.0332 0001507  60.0232  48.1046 15.08858731  8250,6917.823,95.436,540.731,538.646,0.0
53750.0,STARLINK-4612,PAYLOAD,2022-10-27 22:00:00,15.08855254,0.0001384,53.2178,20.5357,60.2728,59.4063,-0.0008493999999999,-0.00013786,0.0,0 STARLINK-4612,1 53750U 22107BC  22300.91667824 -.00013786  00000-0 -84940-3 0  9997,2 53750  53.2178  20.5357 0001384  60.2728  59.4063 15.08855254  1305,6917.834,95.437,540.656,538.741,0.0
53750.0,STARLINK-4612,PAYLOAD,2022-10-28 08:00:01,15.08863566,0.0001457,53.218,18.6651,64.8345,159.4209,-0.0017889,-0.00028664,0.0,0 STARLINK-4612,1 53750U 22107BC  22301.33335648 -.00028664  00000-0 -17889-2 0  9998,2 53750  53.2180  18.6651 0001457  64.8345 159.4209 15.08863566  8360,6917.808000000001,95.436,540.681,538.665,0.0
53750.0,STARLINK-4612,PAYLOAD,2022-10-28 14:00:01,15.0884305,0.0001574,53.218,17.544,58.3375,84.6291,0.00014061,1.951e-05,0.0,0 STARLINK-4612,1 53750U 22107BC  22301.58335648  .00001951  00000-0  14061-3 0  9993,2 53750  53.2180  17.5440 0001574  58.3375  84.6291 15.08843050  1308,6917.871,95.437,540.825,538.6469999999998,0.0
53750.0,STARLINK-4612,PAYLOAD,2022-10-28 22:00:01,15.08853883,0.0001446,53.218,16.0464,60.1075,94.4612,-0.0022601999999999,-0.00036093,0.0,0 STARLINK-4612,1 53750U 22107BC  22301.91668981 -.00036093  00000-0 -22602-2 0  9995,2 53750  53.2180  16.0464 0001446  60.1075  94.4612 15.08853883  1305,6917.8380000000025,95.437,540.703,538.703,0.0
53750.0,STARLINK-4612,PAYLOAD,2022-10-29 08:00:01,15.08845256,0.0001541,53.2182,14.175999999999998,63.624,195.3803,3.5989000000000004e-05,2.85e-06,0.0,0 STARLINK-4612,1 53750U 22107BC  22302.33334491  .00000285  00000-0  35989-4 0  9994,2 53750  53.2182  14.1760 0001541  63.6240 195.3803 15.08845256  8511,6917.864000000001,95.437,540.795,538.663,0.0
53750.0,STARLINK-4612,PAYLOAD,2022-10-29 12:00:00,15.08844258,0.000165,53.2181,13.4287,59.8881,24.9188,0.00093295,0.00014593,0.0,0 STARLINK-4612,1 53750U 22107BC  22302.50001157  .00014593  00000-0  93295-3 0  9993,2 53750  53.2181  13.4287 0001650  59.8881  24.9188 15.08844258  1309,6917.8669999999975,95.437,540.874,538.591,0.0
53750.0,STARLINK-4612,PAYLOAD,2022-10-29 22:00:01,15.08881643,0.000157,53.2182,11.557,62.15600000000001,127.2289,-0.0024973,-0.00039858,0.0,0 STARLINK-4612,1 53750U 22107BC  22302.91668981 -.00039858  00000-0 -24973-2 0  9991,2 53750  53.2182  11.5570 0001570  62.1560 127.2289 15.08881643  1304,6917.753000000002,95.435,540.7040000000002,538.5319999999998,0.0
53750.0,STARLINK-4612,PAYLOAD,2022-10-30 00:00:00,15.08852304,0.0001545,53.2183,11.1826,63.7976,218.4421,0.00072816,0.00011324,0.0,0 STARLINK-4612,1 53750U 22107BC  22303.00001157  .00011324  00000-0  72816-3 0  9994,2 53750  53.2183  11.1826 0001545  63.7976 218.4421 15.08852304  8619,6917.843000000003,95.437,540.7769999999998,538.639,0.0
53750.0,STARLINK-4612,PAYLOAD,2022-10-30 14:00:01,15.08808072,0.0001525,53.2183,8.5656,54.3224,158.2327,0.00024373,3.59e-05,0.0,0 STARLINK-4612,1 53750U 22107BC  22303.58334491  .00003590  00000-0  24373-3 0  9998,2 53750  53.2183   8.5656 0001525  54.3224 158.2327 15.08808072  1308,6917.978,95.44,540.898,538.788,0.0
53750.0,STARLINK-4612,PAYLOAD,2022-10-30 22:00:01,15.08812298,0.0001367,53.2182,7.0676,58.664,165.5156,-0.0019757999999999,-0.00031571,0.0,0 STARLINK-4612,1 53750U 22107BC  22303.91668981 -.00031571  00000-0 -19758-2 0  9991,2 53750  53.2182   7.0676 0001367  58.6640 165.5156 15.08812298  1302,6917.965,95.439,540.776,538.884,0.0
53750.0,STARLINK-4612,PAYLOAD,2022-10-31 14:00:01,15.08790352,0.0001561,53.2181,4.0767,55.1297,192.0913,0.0036001999999999,0.00057398,0.0,0 STARLINK-4612,1 53750U 22107BC  22304.58334491  .00057398  00000-0  36002-2 0  9995,2 53750  53.2181   4.0767 0001561  55.1297 192.0913 15.08790352  1307,6918.031999999997,95.441,540.977,538.817,0.0
53750.0,STARLINK-4612,PAYLOAD,2022-10-31 22:00:01,15.08829166,0.000143,53.218,2.5787,60.9944,197.8554,0.0010703,0.00016782,0.0,0 STARLINK-4612,1 53750U 22107BC  22304.91668981  .00016782  00000-0  10703-2 0  9998,2 53750  53.2180   2.5787 0001430  60.9944 197.8554 15.08829166  1309,6917.9140000000025,95.438,540.768,538.789,0.0
53750.0,STARLINK-4612,PAYLOAD,2022-11-01 14:00:01,15.08813403,0.0001668,53.2178,359.5878,58.0597,223.9258,0.0037358,0.00059627,0.0,0 STARLINK-4612,1 53750U 22107BC  22305.58334491  .00059627  00000-0  37358-2 0  9998,2 53750  53.2178 359.5878 0001668  58.0597 223.9258 15.08813403  1306,6917.962,95.439,540.981,538.673,0.0
53750.0,STARLINK-4612,PAYLOAD,2022-11-01 22:00:00,15.08850562,0.0001504,53.2177,358.0898,63.0961,230.4833,-0.0014937,-0.00023988,0.0,0 STARLINK-4612,1 53750U 22107BC  22305.91667824 -.00023988  00000-0 -14937-2 0  9995,2 53750  53.2177 358.0898 0001504  63.0961 230.4833 15.08850562  9050,6917.848000000001,95.437,540.754,538.673,0.0
53750.0,STARLINK-4612,PAYLOAD,2022-11-02 14:00:01,15.08804968,0.0001739,53.2173,355.0991,57.5633,259.2053,0.0039676,0.00063364,0.0,0 STARLINK-4612,1 53750U 22107BC  22306.58334491  .00063364  00000-0  39676-2 0  9997,2 53750  53.2173 355.0991 0001739  57.5633 259.2053 15.08804968  1303,6917.986999999999,95.44,541.056,538.649,0.0
53750.0,STARLINK-4612,PAYLOAD,2022-11-02 22:00:00,15.08838356,0.0001565999999999,53.2174,353.6008,62.9262,265.4167,-0.00089796,-0.0001455,0.0,0 STARLINK-4612,1 53750U 22107BC  22306.91667824 -.00014550  00000-0 -89796-3 0  9997,2 53750  53.2174 353.6008 0001566  62.9262 265.4167 15.08838356  9203,6917.885,95.438,540.8340000000002,538.6669999999998,0.0
53750.0,STARLINK-4612,PAYLOAD,2022-11-03 14:00:01,15.08841825,0.0001655,53.2173,350.6098,55.37,296.1741,0.0025122,0.00039923,0.0,0 STARLINK-4612,1 53750U 22107BC  22307.58334491  .00039923  00000-0  25122-2 0  9993,2 53750  53.2173 350.6098 0001655  55.3700 296.1741 15.08841825  9316,6917.875,95.437,540.885,538.595,0.0
53750.0,STARLINK-4612,PAYLOAD,2022-11-03 22:00:00,15.08844968,0.0001525,53.2174,349.1117,60.5536,302.6140000000001,0.00045459,6.955e-05,0.0,0 STARLINK-4612,1 53750U 22107BC  22307.91667824  .00006955  00000-0  45459-3 0  9994,2 53750  53.2174 349.1117 0001525  60.5536 302.6140 15.08844968  1301,6917.865,95.437,540.785,538.675,0.0
53750.0,STARLINK-4612,PAYLOAD,2022-11-04 06:00:00,15.08870388,0.0001604,53.2178,347.6162,60.2361,314.532,-0.0040327,-0.00063952,0.0,0 STARLINK-4612,1 53750U 22107BC  22308.25001157 -.00063952  00000-0 -40327-2 0  9993,2 53750  53.2178 347.6162 0001604  60.2361 314.5320 15.08870388  9416,6917.788000000001,95.436,540.762,538.543,0.0
53750.0,STARLINK-4612,PAYLOAD,2022-11-04 14:00:01,15.08878513,0.0001624,53.2174,346.1212,53.9754,332.3878,-0.010272,-0.00160321,0.0,0 STARLINK-4612,1 53750U 22107BC  22308.58334491 -.00160321  00000-0 -10272-1 0  9992,2 53750  53.2174 346.1212 0001624  53.9754 332.3878 15.08878513  1303,6917.763000000001,95.435,540.751,538.504,0.0
53750.0,STARLINK-4612,PAYLOAD,2022-11-04 22:00:01,15.08822272,0.0001398,53.2176,344.6224,56.2462,341.8119,-0.00054213,-8.901e-05,0.0,0 STARLINK-4612,1 53750U 22107BC  22308.91668981 -.00008901  00000-0 -54213-3 0  9993,2 53750  53.2176 344.6224 0001398  56.2462 341.8119 15.08822272  9516,6917.935,95.439,540.7669999999998,538.832,0.0
53750.0,STARLINK-4612,PAYLOAD,2022-11-05 14:00:01,15.08780479,0.0001636999999999,53.2175,341.6315,49.9246,11.2535,0.003305,0.00052618,0.0,0 STARLINK-4612,1 53750U 22107BC  22309.58335648  .00052618  00000-0  33050-2 0  9995,2 53750  53.2175 341.6315 0001637  49.9246  11.2535 15.08780479  1309,6918.062,95.441,541.06,538.795,0.0
53750.0,STARLINK-4612,PAYLOAD,2022-11-05 22:00:01,15.08795123,0.0001489,53.2178,340.1335,57.4908,15.2458,0.0035275,0.00056231,0.0,0 STARLINK-4612,1 53750U 22107BC  22309.91668981  .00056231  00000-0  35275-2 0  9997,2 53750  53.2178 340.1335 0001489  57.4908  15.2458 15.08795123  1302,6918.018,95.44,540.913,538.852,0.0
53750.0,STARLINK-4612,PAYLOAD,2022-11-06 06:00:00,15.08845771,0.0001612,53.2178,338.6381,56.8739,27.3582,-0.00083844,-0.00013609,0.0,0 STARLINK-4612,1 53750U 22107BC  22310.25001157 -.00013609  00000-0 -83844-3 0  9992,2 53750  53.2178 338.6381 0001612  56.8739  27.3582 15.08845771  9718,6917.863,95.437,540.8430000000002,538.613,0.0
53750.0,STARLINK-4612,PAYLOAD,2022-11-06 14:00:01,15.08835622,0.0001675,53.2175,337.1425,50.2222,45.6053,0.0020359,0.00032258,0.0,0 STARLINK-4612,1 53750U 22107BC  22310.58334491  .00032258  00000-0  20359-2 0  9998,2 53750  53.2175 337.1425 0001675  50.2222  45.6053 15.08835622  1309,6917.894,95.438,540.918,538.6,0.0
53750.0,STARLINK-4612,PAYLOAD,2022-11-07 08:00:01,15.0882228,0.0001696,53.2175,333.7753,55.5832,156.339,6.0681e-05,6.77e-06,0.0,0 STARLINK-4612,1 53750U 22107BC  22311.33334491  .00000677  00000-0  60681-4 0  9996,2 53750  53.2175 333.7753 0001696  55.5832 156.3390 15.08822280  9873,6917.935,95.439,540.9730000000002,538.626,0.0
53750.0,STARLINK-4612,PAYLOAD,2022-11-07 22:00:00,15.08829995,0.0001591,53.2172,331.1551,61.3212,80.8764,0.001873,0.00029638,0.0,0 STARLINK-4612,1 53750U 22107BC  22311.91667824  .00029638  00000-0  18730-2 0  9993,2 53750  53.2172 331.1551 0001591  61.3212  80.8764 15.08829995  1305,6917.911,95.438,540.877,538.675,0.0
53750.0,STARLINK-4612,PAYLOAD,2022-11-08 00:00:02,15.08856477,0.0001625,53.2172,330.7808,64.17699999999999,170.9878,0.0012779999999999,0.00020119,0.0,0 STARLINK-4612,1 53750U 22107BC  22312.00002315  .00020119  00000-0  12780-2 0  9996,2 53750  53.2172 330.7808 0001625  64.1770 170.9878 15.08856477  9976,6917.83,95.437,540.819,538.571,0.0
